[{"OBJECT_NAME":"SAUDICOMSAT 2","OBJECT_ID":"2004-025E","EPOCH":"2026-03-09T23:03:17.488512","MEAN_MOTION":14.49909502,"ECCENTRICITY":0.00552225,"INCLINATION":98.6687,"RA_OF_ASC_NODE":78.3866,"ARG_OF_PERICENTER":199.0256,"MEAN_ANOMALY":160.8875,"EPHEMERIS_TYPE":0,"CLASSIFICATION_TYPE":"U","NORAD_CAT_ID":28370,"ELEMENT_SET_NO":999,"REV_AT_EPOCH":14572,"BSTAR":0.00011691026,"MEAN_MOTION_DOT":4.11e-6,"MEAN_MOTION_DDOT":0},{"OBJECT_NAME":"DELTA 1 DEB","OBJECT_ID":"1962-002E","EPOCH":"2026-03-08T14:56:09.766464","MEAN_MOTION":14.58699913,"ECCENTRICITY":0.00717635,"INCLINATION":48.2684,"RA_OF_ASC_NODE":180.1766,"ARG_OF_PERICENTER":190.4621,"MEAN_ANOMALY":195.9979,"EPHEMERIS_TYPE":0,"CLASSIFICATION_TYPE":"U","NORAD_CAT_ID":28443,"ELEMENT_SET_NO":999,"REV_AT_EPOCH":29266,"BSTAR":0.00030425981,"MEAN_MOTION_DOT":1.293e-5,"MEAN_MOTION_DDOT":0}]
